Results
*******************************************************************************
 Revised: Aug 07, 2025           Gridr (2004S20) / (Saturn)                 654

 Newly discovered irregular Saturnian satellite
*******************************************************************************


*******************************************************************************
Ephemeris / API_USER Wed Apr 22 07:17:07 2026 Pasadena, USA      / Horizons    
*******************************************************************************
Target body name: Gridr (654)                     {source: sat456_merged_DE440}
Center body name: Earth (399)                     {source: sat456_merged_DE440}
Center-site name: GEOCENTRIC
*******************************************************************************
Start time      : A.D. 2020-Jan-01 00:00:00.0000 UT      
Stop  time      : A.D. 2020-Dec-20 00:00:00.0000 UT      
Step-size       : 1440 minutes
*******************************************************************************
Target pole/equ : undefined
Target radii    : undefined                                                    
Center geodetic : 0.0, 0.0, -6378.137             {E-lon(deg),Lat(deg),Alt(km)}
Center cylindric: 0.0, 0.0, 0.0                   {E-lon(deg),Dxy(km),Dz(km)}
Center pole/equ : ITRF93                          {East-longitude positive}
Center radii    : 6378.137, 6378.137, 6356.752 km {Equator_a, b, pole_c}       
Target primary  : Saturn
Vis. interferer : MOON (R_eq= 1737.400) km        {source: sat456_merged_DE440}
Rel. light bend : Sun                             {source: sat456_merged_DE440}
Rel. lght bnd GM: 1.3271E+11 km^3/s^2                                          
Atmos refraction: NO (AIRLESS)
RA format       : HMS
Time format     : CAL 
Calendar mode   : Mixed Julian/Gregorian
EOP file        : eop.260421.p260718                                           
EOP coverage    : DATA-BASED 1962-JAN-20 TO 2026-APR-21. PREDICTS-> 2026-JUL-17
Units conversion: 1 au= 149597870.700 km, c= 299792.458 km/s, 1 day= 86400.0 s 
Table cut-offs 1: Elevation (-90.0deg=NO ),Airmass (>38.000=NO), Daylight (NO )
Table cut-offs 2: Solar elongation (  0.0,180.0=NO ),Local Hour Angle( 0.0=NO )
Table cut-offs 3: RA/DEC angular rate (     0.0=NO )                           
**************************************************************************************************************************
 Date__(UT)__HR:MN     R.A._____(ICRF)_____DEC    APmag   S-brt             delta      deldot     S-O-T /r     S-T-O  Cnst
**************************************************************************************************************************
$$SOE
 2020-Apr-28 00:00     20 12 53.29 -20 03 48.3     n.a.    n.a.  9.76143062067271 -29.4615900   96.9201 /L    5.7774   Cap
 2020-Apr-29 00:00     20 12 59.25 -20 03 40.0     n.a.    n.a.  9.74443517757981 -29.3907871   97.8688 /L    5.7669   Cap
 2020-Apr-30 00:00     20 13 04.81 -20 03 33.0     n.a.    n.a.  9.72748298586805 -29.3118338   98.8185 /L    5.7547   Cap
 2020-May-01 00:00     20 13 09.97 -20 03 27.2     n.a.    n.a.  9.71057871744732 -29.2248573   99.7693 /L    5.7410   Cap
 2020-May-02 00:00     20 13 14.72 -20 03 22.8     n.a.    n.a.  9.69372696241362 -29.1300135  100.7211 /L    5.7255   Cap
 2020-May-03 00:00     20 13 19.08 -20 03 19.6     n.a.    n.a.  9.67693221340177 -29.0274828  101.6740 /L    5.7085   Cap
 2020-May-04 00:00     20 13 23.04 -20 03 17.7     n.a.    n.a.  9.66019885441616 -28.9174581  102.6279 /L    5.6898   Cap
 2020-May-05 00:00     20 13 26.60 -20 03 17.1     n.a.    n.a.  9.64353115927937 -28.8001236  103.5828 /L    5.6695   Cap
 2020-May-06 00:00     20 13 29.76 -20 03 17.8     n.a.    n.a.  9.62693330508422 -28.6756249  104.5388 /L    5.6475   Cap
 2020-May-07 00:00     20 13 32.52 -20 03 19.8     n.a.    n.a.  9.61040940323224 -28.5440396  105.4960 /L    5.6240   Cap
 2020-May-08 00:00     20 13 34.88 -20 03 23.1     n.a.    n.a.  9.59396354467876 -28.4053595  106.4542 /L    5.5988   Cap
 2020-May-09 00:00     20 13 36.84 -20 03 27.7     n.a.    n.a.  9.57759984958718 -28.2594940  107.4137 /L    5.5719   Cap
 2020-May-10 00:00     20 13 38.40 -20 03 33.5     n.a.    n.a.  9.56132250902564 -28.1062934  108.3743 /L    5.5435   Cap
 2020-May-11 00:00     20 13 39.56 -20 03 40.7     n.a.    n.a.  9.54513580974533 -27.9455817  109.3362 /L    5.5134   Cap
 2020-May-12 00:00     20 13 40.32 -20 03 49.1     n.a.    n.a.  9.52904414013775 -27.7771870  110.2992 /L    5.4816   Cap
 2020-May-13 00:00     20 13 40.68 -20 03 58.9     n.a.    n.a.  9.51305198161524 -27.6009614  111.2636 /L    5.4483   Cap
 2020-May-14 00:00     20 13 40.63 -20 04 09.9     n.a.    n.a.  9.49716389225216 -27.4167879  112.2292 /L    5.4133   Cap
 2020-May-15 00:00     20 13 40.19 -20 04 22.2     n.a.    n.a.  9.48138448861023 -27.2245802  113.1960 /L    5.3767   Cap
 2020-May-16 00:00     20 13 39.35 -20 04 35.8     n.a.    n.a.  9.46571842939884 -27.0242777  114.1641 /L    5.3384   Cap
 2020-May-17 00:00     20 13 38.11 -20 04 50.7     n.a.    n.a.  9.45017040237316 -26.8158395  115.1335 /L    5.2986   Cap
 2020-May-18 00:00     20 13 36.47 -20 05 06.8     n.a.    n.a.  9.43474511431648 -26.5992400  116.1042 /L    5.2571   Cap
 2020-May-19 00:00     20 13 34.43 -20 05 24.3     n.a.    n.a.  9.41944728313473 -26.3744661  117.0761 /L    5.2140   Cap
 2020-May-20 00:00     20 13 32.00 -20 05 42.9     n.a.    n.a.  9.40428163077502 -26.1415170  118.0492 /L    5.1693   Cap
 2020-May-21 00:00     20 13 29.17 -20 06 02.9     n.a.    n.a.  9.38925287567393 -25.9004062  119.0236 /L    5.1230   Cap
 2020-May-22 00:00     20 13 25.96 -20 06 24.1     n.a.    n.a.  9.37436572364592 -25.6511645  119.9992 /L    5.0751   Cap
 2020-May-23 00:00     20 13 22.35 -20 06 46.5     n.a.    n.a.  9.35962485649457 -25.3938449  120.9760 /L    5.0256   Cap
 2020-May-24 00:00     20 13 18.36 -20 07 10.1     n.a.    n.a.  9.34503491813554 -25.1285264  121.9540 /L    4.9745   Cap
 2020-May-25 00:00     20 13 13.98 -20 07 35.0     n.a.    n.a.  9.33060049857770 -24.8553170  122.9332 /L    4.9219   Cap
 2020-May-26 00:00     20 13 09.22 -20 08 01.1     n.a.    n.a.  9.31632611659234 -24.5743554  123.9136 /L    4.8677   Cap
 2020-May-27 00:00     20 13 04.08 -20 08 28.4     n.a.    n.a.  9.30221620218868 -24.2858101  124.8950 /L    4.8119   Cap
 2020-May-28 00:00     20 12 58.56 -20 08 56.8     n.a.    n.a.  9.28827508006922 -23.9898766  125.8776 /L    4.7547   Cap
 2020-May-29 00:00     20 12 52.67 -20 09 26.5     n.a.    n.a.  9.27450695516188 -23.6867732  126.8613 /L    4.6959   Cap
 2020-May-30 00:00     20 12 46.41 -20 09 57.3     n.a.    n.a.  9.26091590131466 -23.3767343  127.8461 /L    4.6356   Cap
 2020-May-31 00:00     20 12 39.79 -20 10 29.2     n.a.    n.a.  9.24750585452283 -23.0600010  128.8319 /L    4.5739   Cap
 2020-Jun-01 00:00     20 12 32.81 -20 11 02.2     n.a.    n.a.  9.23428061264205 -22.7368081  129.8188 /L    4.5107   Cap
 2020-Jun-02 00:00     20 12 25.47 -20 11 36.4     n.a.    n.a.  9.22124384396025 -22.4073662  130.8067 /L    4.4460   Cap
 2020-Jun-03 00:00     20 12 17.78 -20 12 11.6     n.a.    n.a.  9.20839910675628 -22.0718423  131.7957 /L    4.3799   Cap
 2020-Jun-04 00:00     20 12 09.74 -20 12 48.0     n.a.    n.a.  9.19574988012628 -21.7303411  132.7858 /L    4.3124   Cap
 2020-Jun-05 00:00     20 12 01.35 -20 13 25.3     n.a.    n.a.  9.18329960299095 -21.3828965  133.7770 /L    4.2435   Cap
 2020-Jun-06 00:00     20 11 52.63 -20 14 03.7     n.a.    n.a.  9.17105171452859 -21.0294759  134.7692 /L    4.1732   Cap
 2020-Jun-07 00:00     20 11 43.57 -20 14 43.2     n.a.    n.a.  9.15900968754897 -20.6699996  135.7625 /L    4.1016   Cap
 2020-Jun-08 00:00     20 11 34.17 -20 15 23.6     n.a.    n.a.  9.14717704808638 -20.3043677  136.7569 /L    4.0286   Cap
 2020-Jun-09 00:00     20 11 24.44 -20 16 05.0     n.a.    n.a.  9.13555737906424 -19.9324869  137.7525 /L    3.9543   Cap
 2020-Jun-10 00:00     20 11 14.39 -20 16 47.4     n.a.    n.a.  9.12415431071959 -19.5542890  138.7492 /L    3.8786   Cap
 2020-Jun-11 00:00     20 11 04.02 -20 17 30.7     n.a.    n.a.  9.11297150322333 -19.1697391  139.7470 /L    3.8017   Cap
 2020-Jun-12 00:00     20 10 53.33 -20 18 15.0     n.a.    n.a.  9.10201262700643 -18.7788361  140.7459 /L    3.7234   Cap
 2020-Jun-13 00:00     20 10 42.34 -20 19 00.1     n.a.    n.a.  9.09128134465743 -18.3816073  141.7459 /L    3.6440   Cap
 2020-Jun-14 00:00     20 10 31.03 -20 19 46.1     n.a.    n.a.  9.08078129620221 -17.9781024  142.7470 /L    3.5632   Cap
 2020-Jun-15 00:00     20 10 19.43 -20 20 33.0     n.a.    n.a.  9.07051608793097 -17.5683877  143.7492 /L    3.4813   Cap
 2020-Jun-16 00:00     20 10 07.53 -20 21 20.7     n.a.    n.a.  9.06048928391512 -17.1525428  144.7525 /L    3.3982   Cap
 2020-Jun-17 00:00     20 09 55.34 -20 22 09.3     n.a.    n.a.  9.05070439886000 -16.7306591  145.7567 /L    3.3139   Cap
 2020-Jun-18 00:00     20 09 42.87 -20 22 58.6     n.a.    n.a.  9.04116489079392 -16.3028419  146.7621 /L    3.2285   Cap
 2020-Jun-19 00:00     20 09 30.13 -20 23 48.7     n.a.    n.a.  9.03187415201617 -15.8692144  147.7684 /L    3.1420   Cap
 2020-Jun-20 00:00     20 09 17.11 -20 24 39.5     n.a.    n.a.  9.02283549718680 -15.4299233  148.7756 /L    3.0543   Cap
 2020-Jun-21 00:00     20 09 03.84 -20 25 31.1     n.a.    n.a.  9.01405214789217 -14.9851452  149.7838 /L    2.9657   Cap
 2020-Jun-22 00:00     20 08 50.30 -20 26 23.3     n.a.    n.a.  9.00552721392520 -14.5350913  150.7929 /L    2.8760   Cap
 2020-Jun-23 00:00     20 08 36.52 -20 27 16.2     n.a.    n.a.  8.99726367261858 -14.0800089  151.8028 /L    2.7853   Cap
 2020-Jun-24 00:00     20 08 22.50 -20 28 09.7     n.a.    n.a.  8.98926434855673 -13.6201787  152.8135 /L    2.6936   Cap
 2020-Jun-25 00:00     20 08 08.24 -20 29 03.8     n.a.    n.a.  8.98153189651379 -13.1559064  153.8250 /L    2.6010   Cap
